HAWK-2C                 
1 47502U 21006CT  26068.67595434  .00008129  00000+0  25493-3 0  9997
2 47502  97.2417 114.9961 0006943 184.0877 176.0310 15.33286436284247
STARLINK-34336          
1 64462U 25130AA  26068.34635599  .00017049  00000+0  58711-3 0  9994
2 64462  53.1586  92.6753 0001159  80.7300 279.3832 15.30161213 40616
